PROBA-1                 
1 26958U 01049B   26180.54891391  .00002366  00000+0  15467-3 0  9993
2 26958  97.9596 189.5125 0056653  81.3845 279.3795 15.07550777345482
CUTE-1 (CO-55)          
1 27844U 03031E   26180.54129514  .00000288  00000+0  14333-3 0  9994
2 27844  98.6736 188.9448 0010276 143.6192 216.5687 14.24343053193434
CUBESAT XI-IV (CO-57)   
1 27848U 03031J   26179.55199356  .00000229  00000+0  11941-3 0  9995
2 27848  98.6768 187.6716 0009707 163.9321 196.2167 14.23626546192990
APRIZESAT 4             
1 35684U 09041D   26179.65294848  .00000649  00000+0  84035-4 0  9993
2 35684  98.1411 255.2019 0041922 284.8620  74.7952 14.83893333913062
APRIZESAT 3             
1 35686U 09041F   26180.40377980  .00000836  00000+0  77064-4 0  9991
2 35686  98.2076 334.2139 0062270  27.7561 332.6959 14.96275213918209
PROBA-2                 
1 36037U 09059B   26180.48250973  .00000191  00000+0  55072-4 0  9990
2 36037  98.2451   3.6649 0012105 239.9723 120.0273 14.54867549883313
APRIZESAT 5             
1 37792U 11044E   26180.30286133  .00001071  00000+0  14247-3 0  9990
2 37792  98.2452 113.6868 0051370 325.1038  34.6809 14.81100961800583
APRIZESAT 6             
1 37793U 11044F   26180.35220080  .00000828  00000+0  12371-3 0  9990
2 37793  98.2355  91.0998 0044173  48.2699  69.1193 14.76934314798944
PROBA-V                 
1 39159U 13021A   26180.48926075  .00000091  00000+0  57978-4 0  9991
2 39159  98.3592 158.4889 0005425  95.3150 264.8648 14.23599914682862
APRIZESAT 7             
1 39416U 13066A   26179.82674009  .00001168  00000+0  12077-3 0  9995
2 39416  97.7712 132.8795 0036001 170.3336 189.8583 14.91587023682969
APRIZESAT 8             
1 39425U 13066K   26180.31567233  .00000872  00000+0  10036-3 0  9995
2 39425  97.8225 127.6148 0044436 245.2739 114.3848 14.87673463681474
BUGSAT-1 (TITA)         
1 40014U 14033E   26180.51399997  .00005399  00000+0  28434-3 0  9998
2 40014  98.0441 273.7844 0028885 136.9345 223.4154 15.15722162657702
SAUDISAT 4              
1 40016U 14033G   26180.35973310  .00000618  00000+0  87969-4 0  9997
2 40016  97.7596 326.0741 0045557  35.3780 325.0439 14.79559608647873
APRIZESAT 9             
1 40018U 14033J   26180.35705405  .00000800  00000+0  12448-3 0  9999
2 40018  97.9075 313.2590 0066642 160.0648 200.3187 14.74232029645352
APRIZESAT 10            
1 40019U 14033K   26179.89538315  .00000511  00000+0  88104-4 0  9993
2 40019  97.9663 306.5945 0077644 235.8179 123.5651 14.70893517643978
TECHDEMOSAT-1 (TDS-1)   
1 40076U 14037H   26180.52265399  .00007845  00000+0  44263-3 0  9995
2 40076  98.3811 173.9596 0005308 212.3790 147.7114 15.13471950650090
TECHNOSAT               
1 42829U 17042E   26180.41643056  .00002446  00000+0  17578-3 0  9991
2 42829  97.4291 337.6102 0019006  55.8906 304.4120 15.05030144488546
FLYING LAPTOP           
1 42831U 17042G   26180.51688700  .00003708  00000+0  29208-3 0  9995
2 42831  97.4736 335.5789 0019970  82.2271 278.1220 15.01224086488308
HAWK-A                  
1 43765U 18099H   26179.70187084  .00006002  00000+0  24138-3 0  9990
2 43765  97.3911 231.7879 0033289 243.2545 116.5285 15.24772887414855
HAWK-B                  
1 43794U 18099AN  26179.67145255  .00005342  00000+0  22777-3 0  9995
2 43794  97.3959 231.1488 0030281 262.3237  97.4561 15.22944700414787
HAWK-C                  
1 43799U 18099AT  26179.71775590  .00006820  00000+0  24501-3 0  9995
2 43799  97.3886 232.7727 0038911 243.1544 116.5715 15.28259417415673
SALSAT                  
1 46495U 20068K   26179.98408402  .00006804  00000+0  23731-3 0  9990
2 46495  97.8845 183.7681 0007870 257.4321 102.6038 15.29961615317164
HAWK-2C                 
1 47502U 21006CT  26179.69278544  .00005961  00000+0  17886-3 0  9990
2 47502  97.2275 223.7734 0007887 148.3628 211.8091 15.34799216301263
HAWK-2A                 
1 47505U 21006CW  26180.54272411  .00006317  00000+0  18926-3 0  9998
2 47505  97.2313 225.2914 0007402 148.6165 211.5522 15.34824420301394
HAWK-2B                 
1 47508U 21006CZ  26180.53748139  .00006999  00000+0  20871-3 0  9993
2 47508  97.2184 223.5983 0008009 147.4218 212.7521 15.34931886301397
HAWK-3B                 
1 48931U 21059BE  26180.49746449  .00037140  00000+0  30228-3 0  9998
2 48931  97.6644  18.3786 0003256 265.4481  94.6409 15.70585804279780
HAWK-3C                 
1 48948U 21059BX  26180.56085211  .00038027  00000+0  30936-3 0  9998
2 48948  97.6764  24.1551 0003500 266.9567  93.1294 15.70591059279795
HAWK-3A                 
1 48957U 21059CG  26180.49701404  .00036878  00000+0  30027-3 0  9992
2 48957  97.6707  21.2800 0003468 269.7805  90.3059 15.70576729279780
HAWK-5C                 
1 52754U 22057Y   26180.42660057  .00017560  00000+0  29523-3 0  9998
2 52754  97.6606 340.8867 0004144  42.6595 317.4977 15.51814636228245
HAWK-5B                 
1 52756U 22057AA  26180.42642994  .00017850  00000+0  29999-3 0  9999
2 52756  97.6615 339.2368 0004742  34.4406 325.7152 15.51818828228243
