OBJECT_NAME,OBJECT_ID,EPOCH,MEAN_MOTION,ECCENTRICITY,INCLINATION,RA_OF_ASC_NODE,ARG_OF_PERICENTER,MEAN_ANOMALY,EPHEMERIS_TYPE,CLASSIFICATION_TYPE,NORAD_CAT_ID,ELEMENT_SET_NO,REV_AT_EPOCH,BSTAR,MEAN_MOTION_DOT,MEAN_MOTION_DDOT
PROBA-1,2001-049B,2026-06-29T13:10:26.161824,15.07550777,.0056653,97.9596,189.5125,81.3845,279.3795,0,U,26958,999,34548,.15467E-3,.2366E-4,0
CUTE-1 (CO-55),2003-031E,2026-06-29T12:59:27.900096,14.24343053,.0010276,98.6736,188.9448,143.6192,216.5687,0,U,27844,999,19343,.14333E-3,.288E-5,0
CUBESAT XI-IV (CO-57),2003-031J,2026-06-28T13:14:52.243584,14.23626546,.00097074,98.6768,187.6716,163.9321,196.2167,0,U,27848,999,19299,.11941018E-3,.229E-5,0
APRIZESAT 4,2009-041D,2026-06-28T15:40:14.748672,14.83893333,.00419224,98.1411,255.2019,284.8620,74.7952,0,U,35684,999,91306,.84035158E-4,.649E-5,0
APRIZESAT 3,2009-041F,2026-06-29T09:41:26.574720,14.96275213,.006227,98.2076,334.2139,27.7561,332.6959,0,U,35686,999,91820,.77064E-4,.836E-5,0
PROBA-2,2009-059B,2026-06-29T11:34:48.840672,14.54867549,.0012105,98.2451,3.6649,239.9723,120.0273,0,U,36037,999,88331,.55072E-4,.191E-5,0
APRIZESAT 5,2011-044E,2026-06-29T07:16:07.218912,14.81100961,.005137,98.2452,113.6868,325.1038,34.6809,0,U,37792,999,80058,.14247E-3,.1071E-4,0
APRIZESAT 6,2011-044F,2026-06-29T08:27:10.149120,14.76934314,.0044173,98.2355,91.0998,48.2699,69.1193,0,U,37793,999,79894,.12371E-3,.828E-5,0
PROBA-V,2013-021A,2026-06-29T11:44:32.128800,14.23599914,.0005425,98.3592,158.4889,95.3150,264.8648,0,U,39159,999,68286,.57978E-4,.91E-6,0
APRIZESAT 7,2013-066A,2026-06-28T19:50:30.343776,14.91587023,.0036001,97.7712,132.8795,170.3336,189.8583,0,U,39416,999,68296,.12077054E-3,.1168E-4,0
APRIZESAT 8,2013-066K,2026-06-29T07:34:34.089312,14.87673463,.0044436,97.8225,127.6148,245.2739,114.3848,0,U,39425,999,68147,.10036E-3,.872E-5,0
BUGSAT-1 (TITA),2014-033E,2026-06-29T12:20:09.597408,15.15722162,.0028885,98.0441,273.7844,136.9345,223.4154,0,U,40014,999,65770,.28434E-3,.5399E-4,0
SAUDISAT 4,2014-033G,2026-06-29T08:38:00.939840,14.79559608,.0045557,97.7596,326.0741,35.3780,325.0439,0,U,40016,999,64787,.87969E-4,.618E-5,0
APRIZESAT 9,2014-033J,2026-06-29T08:34:09.469920,14.74232029,.0066642,97.9075,313.2590,160.0648,200.3187,0,U,40018,999,64535,.12448E-3,.8E-5,0
APRIZESAT 10,2014-033K,2026-06-28T21:29:21.104160,14.70893517,.0077644,97.9663,306.5945,235.8179,123.5651,0,U,40019,999,64397,.88103502E-4,.511E-5,0
TECHDEMOSAT-1 (TDS-1),2014-037H,2026-06-29T12:32:37.304736,15.13471950,.0005308,98.3811,173.9596,212.3790,147.7114,0,U,40076,999,65009,.44263E-3,.7845E-4,0
TECHNOSAT,2017-042E,2026-06-29T09:59:39.600384,15.05030144,.0019006,97.4291,337.6102,55.8906,304.4120,0,U,42829,999,48854,.17578E-3,.2446E-4,0
FLYING LAPTOP,2017-042G,2026-06-29T12:24:19.036800,15.01224086,.001997,97.4736,335.5789,82.2271,278.1220,0,U,42831,999,48830,.29208E-3,.3708E-4,0
HAWK-A,2018-099H,2026-06-28T16:50:41.640576,15.24772887,.00332896,97.3911,231.7879,243.2545,116.5285,0,U,43765,999,41485,.24138159E-3,.6002E-4,0
HAWK-B,2018-099AN,2026-06-28T16:06:53.500320,15.22944700,.00302813,97.3959,231.1488,262.3237,97.4561,0,U,43794,999,41478,.22776796E-3,.5342E-4,0
HAWK-C,2018-099AT,2026-06-28T17:13:34.109760,15.28259417,.00389115,97.3886,232.7727,243.1544,116.5715,0,U,43799,999,41567,.24500845E-3,.682E-4,0
SALSAT,2020-068K,2026-06-28T23:37:04.859328,15.29961615,.00078707,97.8845,183.7681,257.4321,102.6038,0,U,46495,999,31716,.23731316E-3,.6804E-4,0
HAWK-2C,2021-006CT,2026-06-28T16:37:36.662016,15.34799216,.00078878,97.2275,223.7734,148.3628,211.8091,0,U,47502,999,30126,.17886419E-3,.5961E-4,0
HAWK-2A,2021-006CW,2026-06-29T13:01:31.363104,15.34824420,.0007402,97.2313,225.2914,148.6165,211.5522,0,U,47505,999,30139,.18926E-3,.6317E-4,0
HAWK-2B,2021-006CZ,2026-06-29T12:53:58.392096,15.34931886,.0008009,97.2184,223.5983,147.4218,212.7521,0,U,47508,999,30139,.20871E-3,.6999E-4,0
HAWK-3B,2021-059BE,2026-06-29T11:56:20.931936,15.70585804,.0003256,97.6644,18.3786,265.4481,94.6409,0,U,48931,999,27978,.30228E-3,.3714E-3,0
HAWK-3C,2021-059BX,2026-06-29T13:27:37.622304,15.70591059,.00035,97.6764,24.1551,266.9567,93.1294,0,U,48948,999,27979,.30936E-3,.38027E-3,0
HAWK-3A,2021-059CG,2026-06-29T11:55:42.013056,15.70576729,.0003468,97.6707,21.2800,269.7805,90.3059,0,U,48957,999,27978,.30027E-3,.36878E-3,0
HAWK-5C,2022-057Y,2026-06-29T10:14:18.289248,15.51814636,.0004144,97.6606,340.8867,42.6595,317.4977,0,U,52754,999,22824,.29523E-3,.1756E-3,0
HAWK-5B,2022-057AA,2026-06-29T10:14:03.546816,15.51818828,.0004742,97.6615,339.2368,34.4406,325.7152,0,U,52756,999,22824,.29999E-3,.1785E-3,0
